start=new Date('2022-02-27T00:00:00.000Z').valueOf();
sats=[{"BSTAR":"0.00006272000000","PERIAPSIS":"546.046","MEAN_ANOMALY":"298.6227","INCLINATION":"53.0553","PERIOD":"95.593","DECAY_DATE":null,"RA_OF_ASC_NODE":"84.1822","OBJECT_TYPE":"PAYLOAD","ELEMENT_SET_NO":"999","SEMIMAJOR_AXIS":"6925.366","MEAN_MOTION_DOT":"0.00000653","OBJECT_NAME":"STARLINK-1641","SITE":"AFETR","NORAD_CAT_ID":"46174","ECCENTRICITY":"0.00017120","APOAPSIS":"548.417","FILE":"3327391","OBJECT_ID":"2020-057BK","TIME_SYSTEM":"UTC","GP_ID":"197158081","RCS_SIZE":"LARGE","REV_AT_EPOCH":"8421","MEAN_ELEMENT_THEORY":"SGP4","LAUNCH_DATE":"2020-08-18","ARG_OF_PERICENTER":"61.4935","EPHEMERIS_TYPE":"0","TLE_LINE1":"1 46174U 20057BK  22057.80157701  .00000653  00000-0  62720-4 0  9996","TLE_LINE2":"2 46174  53.0553  84.1822 0001712  61.4935 298.6227 15.06394266 84212","EPOCH":"2022-02-26T19:14:16.253664","MEAN_MOTION":"15.06394266","COUNTRY_CODE":"US","MEAN_MOTION_DDOT":"0.0000000000000","CLASSIFICATION_TYPE":"U","CENTER_NAME":"EARTH","REF_FRAME":"TEME"},{"NORAD_CAT_ID":"46325","ECCENTRICITY":"0.00018770","FILE":"3327391","OBJECT_ID":"2020-062A","APOAPSIS":"548.493","GP_ID":"197158593","TIME_SYSTEM":"UTC","BSTAR":"0.00043136000000","PERIOD":"95.592","INCLINATION":"53.0538","MEAN_ANOMALY":"303.6022","PERIAPSIS":"545.893","OBJECT_TYPE":"PAYLOAD","RA_OF_ASC_NODE":"100.0284","DECAY_DATE":null,"SITE":"AFETR","SEMIMAJOR_AXIS":"6925.328","MEAN_MOTION_DOT":"0.00006150","OBJECT_NAME":"STARLINK-1734","ELEMENT_SET_NO":"999","EPOCH":"2022-02-26T14:44:14.136000","TLE_LINE2":"2 46325  53.0538 100.0284 0001877  56.5146 303.6022 15.06406702 83672","MEAN_MOTION":"15.06406702","REF_FRAME":"TEME","MEAN_MOTION_DDOT":"0.0000000000000","CENTER_NAME":"EARTH","CLASSIFICATION_TYPE":"U","COUNTRY_CODE":"US","MEAN_ELEMENT_THEORY":"SGP4","REV_AT_EPOCH":"8367","RCS_SIZE":"LARGE","LAUNCH_DATE":"2020-09-03","ARG_OF_PERICENTER":"56.5146","EPHEMERIS_TYPE":"0","TLE_LINE1":"1 46325U 20062A   22057.61405250  .00006150  00000-0  43136-3 0  9991"},{"RA_OF_ASC_NODE":"144.8312","OBJECT_TYPE":"PAYLOAD","DECAY_DATE":null,"MEAN_MOTION_DOT":"-0.00000003","SEMIMAJOR_AXIS":"6925.395","OBJECT_NAME":"STARLINK-1654","ELEMENT_SET_NO":"999","SITE":"AFETR","BSTAR":"0.00001867800000","INCLINATION":"53.0552","PERIOD":"95.593","PERIAPSIS":"546.340","MEAN_ANOMALY":"300.2147","GP_ID":"197159099","TIME_SYSTEM":"UTC","NORAD_CAT_ID":"46326","ECCENTRICITY":"0.00013280","APOAPSIS":"548.180","OBJECT_ID":"2020-062B","FILE":"3327391","EPHEMERIS_TYPE":"0","TLE_LINE1":"1 46326U 20062B   22057.65503238 -.00000003  00000-0  18678-4 0  9997","MEAN_ELEMENT_THEORY":"SGP4","RCS_SIZE":"LARGE","REV_AT_EPOCH":"8244","LAUNCH_DATE":"2020-09-03","ARG_OF_PERICENTER":"59.8974","MEAN_MOTION":"15.06384814","CLASSIFICATION_TYPE":"U","MEAN_MOTION_DDOT":"0.0000000000000","CENTER_NAME":"EARTH","REF_FRAME":"TEME","COUNTRY_CODE":"US","TLE_LINE2":"2 46326  53.0552 144.8312 0001328  59.8974 300.2147 15.06384814 82447","EPOCH":"2022-02-26T15:43:14.797632"},{"MEAN_MOTION":"15.06386883","COUNTRY_CODE":"US","CLASSIFICATION_TYPE":"U","MEAN_MOTION_DDOT":"0.0000000000000","CENTER_NAME":"EARTH","REF_FRAME":"TEME","TLE_LINE2":"2 46327  53.0549 144.9461 0001383  71.3825 288.7314 15.06386883 82438","EPOCH":"2022-02-26T15:12:46.380960","EPHEMERIS_TYPE":"0","TLE_LINE1":"1 46327U 20062C   22057.63387015  .00001758  00000-0  13696-3 0  9990","RCS_SIZE":"LARGE","REV_AT_EPOCH":"8243","MEAN_ELEMENT_THEORY":"SGP4","LAUNCH_DATE":"2020-09-03","ARG_OF_PERICENTER":"71.3825","TIME_SYSTEM":"UTC","GP_ID":"197159349","NORAD_CAT_ID":"46327","ECCENTRICITY":"0.00013830","APOAPSIS":"548.212","FILE":"3327391","OBJECT_ID":"2020-062C","DECAY_DATE":null,"RA_OF_ASC_NODE":"144.9461","OBJECT_TYPE":"PAYLOAD","SEMIMAJOR_AXIS":"6925.389","OBJECT_NAME":"STARLINK-1673","MEAN_MOTION_DOT":"0.00001758","ELEMENT_SET_NO":"999","SITE":"AFETR","BSTAR":"0.00013696000000","PERIAPSIS":"546.296","MEAN_ANOMALY":"288.7314","PERIOD":"95.593","INCLINATION":"53.0549"},{"REF_FRAME":"TEME","CLASSIFICATION_TYPE":"U","MEAN_MOTION_DDOT":"0.0000000000000","CENTER_NAME":"EARTH","COUNTRY_CODE":"US","MEAN_MOTION":"15.06398234","EPOCH":"2022-02-26T21:05:43.414944","TLE_LINE2":"2 46328  53.0541 123.8363 0001810  50.4344 309.6805 15.06398234 82753","TLE_LINE1":"1 46328U 20062D   22057.87897471  .00001820  00000-0  14108-3 0  9998","EPHEMERIS_TYPE":"0","LAUNCH_DATE":"2020-09-03","ARG_OF_PERICENTER":"50.4344","MEAN_ELEMENT_THEORY":"SGP4","REV_AT_EPOCH":"8275","RCS_SIZE":"LARGE","GP_ID":"197159600","TIME_SYSTEM":"UTC","FILE":"3327391","OBJECT_ID":"2020-062D","APOAPSIS":"548.472","ECCENTRICITY":"0.00018100","NORAD_CAT_ID":"46328","SITE":"AFETR","OBJECT_NAME":"STARLINK-1686","SEMIMAJOR_AXIS":"6925.354","MEAN_MOTION_DOT":"0.00001820","ELEMENT_SET_NO":"999","OBJECT_TYPE":"PAYLOAD","RA_OF_ASC_NODE":"123.8363","DECAY_DATE":null,"PERIOD":"95.592","INCLINATION":"53.0541","MEAN_ANOMALY":"309.6805","PERIAPSIS":"545.965","BSTAR":"0.00014108000000"},{"EPHEMERIS_TYPE":"0","TLE_LINE1":"1 46329U 20062E   22057.44772643  .00001575  00000-0  12463-3 0  9994","REV_AT_EPOCH":"8268","RCS_SIZE":"LARGE","MEAN_ELEMENT_THEORY":"SGP4","LAUNCH_DATE":"2020-09-03","ARG_OF_PERICENTER":"64.9857","MEAN_MOTION":"15.06389330","COUNTRY_CODE":"US","REF_FRAME":"TEME","CENTER_NAME":"EARTH","MEAN_MOTION_DDOT":"0.0000000000000","CLASSIFICATION_TYPE":"U","EPOCH":"2022-02-26T10:44:43.563552","TLE_LINE2":"2 46329  53.0548 125.7651 0001617  64.9857 295.1300 15.06389330 82684","DECAY_DATE":null,"OBJECT_TYPE":"PAYLOAD","RA_OF_ASC_NODE":"125.7651","SITE":"AFETR","SEMIMAJOR_AXIS":"6925.381","MEAN_MOTION_DOT":"0.00001575","ELEMENT_SET_NO":"999","OBJECT_NAME":"STARLINK-1695","BSTAR":"0.00012463000000","MEAN_ANOMALY":"295.1300","PERIAPSIS":"546.126","PERIOD":"95.593","INCLINATION":"53.0548","TIME_SYSTEM":"UTC","GP_ID":"197111536","ECCENTRICITY":"0.00016170","NORAD_CAT_ID":"46329","FILE":"3326397","OBJECT_ID":"2020-062E","APOAPSIS":"548.366"},{"TIME_SYSTEM":"UTC","GP_ID":"197158599","NORAD_CAT_ID":"46330","ECCENTRICITY":"0.00015670","OBJECT_ID":"2020-062F","FILE":"3327391","APOAPSIS":"548.295","DECAY_DATE":null,"OBJECT_TYPE":"PAYLOAD","RA_OF_ASC_NODE":"123.7275","SITE":"AFETR","ELEMENT_SET_NO":"999","SEMIMAJOR_AXIS":"6925.345","MEAN_MOTION_DOT":"0.00001885","OBJECT_NAME":"STARLINK-1710","BSTAR":"0.00014542000000","MEAN_ANOMALY":"300.4156","PERIAPSIS":"546.124","PERIOD":"95.592","INCLINATION":"53.0532","MEAN_MOTION":"15.06401307","COUNTRY_CODE":"US","REF_FRAME":"TEME","MEAN_MOTION_DDOT":"0.0000000000000","CLASSIFICATION_TYPE":"U","CENTER_NAME":"EARTH","EPOCH":"2022-02-26T21:37:34.244256","TLE_LINE2":"2 46330  53.0532 123.7275 0001567  59.6988 300.4156 15.06401307 82766","EPHEMERIS_TYPE":"0","TLE_LINE1":"1 46330U 20062F   22057.90109079  .00001885  00000-0  14542-3 0  9998","REV_AT_EPOCH":"8276","RCS_SIZE":"LARGE","MEAN_ELEMENT_THEORY":"SGP4","LAUNCH_DATE":"2020-09-03","ARG_OF_PERICENTER":"59.6988"},{"TLE_LINE2":"2 46331  53.0538 144.7765 0001559  68.6185 291.4970 15.06387732 82443","EPOCH":"2022-02-26T16:05:50.835264","COUNTRY_CODE":"US","MEAN_MOTION_DDOT":"0.0000000000000","CENTER_NAME":"EARTH","CLASSIFICATION_TYPE":"U","REF_FRAME":"TEME","MEAN_MOTION":"15.06387732","ARG_OF_PERICENTER":"68.6185","LAUNCH_DATE":"2020-09-03","RCS_SIZE":"LARGE","REV_AT_EPOCH":"8244","MEAN_ELEMENT_THEORY":"SGP4","TLE_LINE1":"1 46331U 20062G   22057.67072726  .00001606  00000-0  12675-3 0  9997","EPHEMERIS_TYPE":"0","APOAPSIS":"548.331","FILE":"3327391","OBJECT_ID":"2020-062G","ECCENTRICITY":"0.00015590","NORAD_CAT_ID":"46331","TIME_SYSTEM":"UTC","GP_ID":"197158849","PERIAPSIS":"546.171","MEAN_ANOMALY":"291.4970","PERIOD":"95.593","INCLINATION":"53.0538","BSTAR":"0.00012675000000","SEMIMAJOR_AXIS":"6925.386","MEAN_MOTION_DOT":"0.00001606","ELEMENT_SET_NO":"999","OBJECT_NAME":"STARLINK-1719","SITE":"AFETR","DECAY_DATE":null,"RA_OF_ASC_NODE":"144.7765","OBJECT_TYPE":"PAYLOAD"},{"EPOCH":"2022-02-26T17:57:18.593568","TLE_LINE2":"2 46332  53.0545 144.4211 0001511  59.8537 300.2601 15.06391666 82458","MEAN_MOTION":"15.06391666","COUNTRY_CODE":"US","REF_FRAME":"TEME","MEAN_MOTION_DDOT":"0.0000000000000","CLASSIFICATION_TYPE":"U","CENTER_NAME":"EARTH","REV_AT_EPOCH":"8245","RCS_SIZE":"LARGE","MEAN_ELEMENT_THEORY":"SGP4","LAUNCH_DATE":"2020-09-03","ARG_OF_PERICENTER":"59.8537","EPHEMERIS_TYPE":"0","TLE_LINE1":"1 46332U 20062H   22057.74813187  .00000532  00000-0  54654-4 0  9991","ECCENTRICITY":"0.00015110","NORAD_CAT_ID":"46332","FILE":"3327391","OBJECT_ID":"2020-062H","APOAPSIS":"548.286","TIME_SYSTEM":"UTC","GP_ID":"197160101","BSTAR":"0.00005465400000","MEAN_ANOMALY":"300.2601","PERIAPSIS":"546.193","PERIOD":"95.593","INCLINATION":"53.0545","DECAY_DATE":null,"OBJECT_TYPE":"PAYLOAD","RA_OF_ASC_NODE":"144.4211","SITE":"AFETR","MEAN_MOTION_DOT":"0.00000532","SEMIMAJOR_AXIS":"6925.374","ELEMENT_SET_NO":"999","OBJECT_NAME":"STARLINK-1721"},{"MEAN_MOTION":"15.06408186","COUNTRY_CODE":"US","REF_FRAME":"TEME","MEAN_MOTION_DDOT":"0.0000000000000","CLASSIFICATION_TYPE":"U","CENTER_NAME":"EARTH","EPOCH":"2022-02-26T16:42:59.705568","TLE_LINE2":"2 46333  53.0532 144.6599 0001458  68.8931 291.2214 15.06408186 82448","EPHEMERIS_TYPE":"0","TLE_LINE1":"1 46333U 20062J   22057.69652437  .00007713  00000-0  53602-3 0  9994","REV_AT_EPOCH":"8244","RCS_SIZE":"LARGE","MEAN_ELEMENT_THEORY":"SGP4","LAUNCH_DATE":"2020-09-03","ARG_OF_PERICENTER":"68.8931","TIME_SYSTEM":"UTC","GP_ID":"197159095","ECCENTRICITY":"0.00014580","NORAD_CAT_ID":"46333","OBJECT_ID":"2020-062J","FILE":"3327391","APOAPSIS":"548.198","DECAY_DATE":null,"OBJECT_TYPE":"PAYLOAD","RA_OF_ASC_NODE":"144.6599","SITE":"AFETR","SEMIMAJOR_AXIS":"6925.323","MEAN_MOTION_DOT":"0.00007713","OBJECT_NAME":"STARLINK-1723","ELEMENT_SET_NO":"999","BSTAR":"0.00053602000000","MEAN_ANOMALY":"291.2214","PERIAPSIS":"546.179","INCLINATION":"53.0532","PERIOD":"95.592"}];
